STARLINK-31149          
1 58863U 24019L   26068.53362764 -.00004203  00000+0 -14324-3 0  9991
2 58863  42.9972 249.3676 0000631 268.5815  91.4965 15.27591575119065
FLOCK 4G-11             
1 62629U 25009W   26068.45629261  .00012672  00000+0  47740-3 0  9990
2 62629  97.3964 150.6183 0001611 333.5407  26.5750 15.27220677 63680
